COSMOS 2058             
1 20465U 90010A   26087.84770882  .00005622  00000+0  33033-3 0  9993
2 20465  82.4688  28.5494 0007466 267.3818  92.6557 15.11493346945138
SL-14 R/B               
1 20466U 90010B   26087.84163810  .00000570  00000+0  66121-4 0  9993
2 20466  82.4997 249.3934 0018596 234.2918 125.6567 14.83586461931327
SL-14 R/B               
1 20511U 90018B   26087.81032884  .00000495  00000+0  59038-4 0  9990
2 20511  82.5237 205.2213 0016940  33.5844 326.6441 14.82163657925410
HST                     
1 20580U 90037B   26087.79815185  .00008936  00000+0  29315-3 0  9999
2 20580  28.4720 269.6203 0001691 350.4608   9.5956 15.29774056776247
SL-16 R/B               
1 20625U 90046B   26087.78398682  .00000250  00000+0  15343-3 0  9993
2 20625  70.9977 257.8083 0016338 274.5689  85.3567 14.15016242851094
COSMOS 2084             
1 20663U 90055A   26087.84866468  .00003212  00000+0  23409-3 0  9997
2 20663  62.7892 270.2268 0014043 195.9981 164.0678 15.05754696939207
SL-6 R/B(2)             
1 20666U 90055D   26087.65807376  .00002068  00000+0  16363-3 0  9991
2 20666  62.7832 189.3408 0027905 351.3124   8.7489 15.03684152941044
SL-8 R/B                
1 20775U 90078B   26087.85697245  .00012948  00000+0  38366-3 0  9996
2 20775  82.9022 234.0621 0358436 309.3613  47.6346 14.89633432812158
SL-8 R/B                
1 21088U 91006B   26087.73895816  .00000091  00000+0  76199-4 0  9990
2 21088  82.9445 155.8836 0021851 345.4118 131.2754 13.77497126766696
OKEAN-3                 
1 21397U 91039A   26087.89545193  .00002628  00000+0  18351-3 0  9999
2 21397  82.5163 318.2350 0012346 265.8029  94.1787 15.04914035867929
COSMOS 2151             
1 21422U 91042A   26087.82681057  .00002642  00000+0  20913-3 0  9998
2 21422  82.4944  65.2100 0012380   3.2866 356.8437 15.00186415866060
SL-14 R/B               
1 21423U 91042B   26087.79990909  .00000501  00000+0  60260-4 0  9996
2 21423  82.4956 202.2659 0017215 173.5055 186.6386 14.81848549855903
