CCSDS_OMM_VERS = 2.0
CREATION_DATE  = 
ORIGINATOR     = 

OBJECT_NAME    = COSMOS 2058
OBJECT_ID      = 1990-010A
CENTER_NAME    = EARTH
REF_FRAME      = TEME
TIME_SYSTEM    = UTC
MEAN_ELEMENT_THEORY = SGP/SGP4

EPOCH          = 2026-03-28T20:20:42.042048
MEAN_MOTION    = 15.11493346
ECCENTRICITY   = .0007466
INCLINATION    = 82.4688
RA_OF_ASC_NODE = 28.5494
ARG_OF_PERICENTER = 267.3818
MEAN_ANOMALY   = 92.6557

EPHEMERIS_TYPE = 0
CLASSIFICATION_TYPE = U
NORAD_CAT_ID   = 20465
ELEMENT_SET_NO = 999
REV_AT_EPOCH   = 94513
BSTAR          = .33033E-3
MEAN_MOTION_DOT = .5622E-4
MEAN_MOTION_DDOT = 0

CCSDS_OMM_VERS = 2.0
CREATION_DATE  = 
ORIGINATOR     = 

OBJECT_NAME    = SL-14 R/B
OBJECT_ID      = 1990-010B
CENTER_NAME    = EARTH
REF_FRAME      = TEME
TIME_SYSTEM    = UTC
MEAN_ELEMENT_THEORY = SGP/SGP4

EPOCH          = 2026-03-28T20:11:57.531840
MEAN_MOTION    = 14.83586461
ECCENTRICITY   = .0018596
INCLINATION    = 82.4997
RA_OF_ASC_NODE = 249.3934
ARG_OF_PERICENTER = 234.2918
MEAN_ANOMALY   = 125.6567

EPHEMERIS_TYPE = 0
CLASSIFICATION_TYPE = U
NORAD_CAT_ID   = 20466
ELEMENT_SET_NO = 999
REV_AT_EPOCH   = 93132
BSTAR          = .66121E-4
MEAN_MOTION_DOT = .57E-5
MEAN_MOTION_DDOT = 0

CCSDS_OMM_VERS = 2.0
CREATION_DATE  = 
ORIGINATOR     = 

OBJECT_NAME    = SL-14 R/B
OBJECT_ID      = 1990-018B
CENTER_NAME    = EARTH
REF_FRAME      = TEME
TIME_SYSTEM    = UTC
MEAN_ELEMENT_THEORY = SGP/SGP4

EPOCH          = 2026-03-28T19:26:52.411776
MEAN_MOTION    = 14.82163657
ECCENTRICITY   = .001694
INCLINATION    = 82.5237
RA_OF_ASC_NODE = 205.2213
ARG_OF_PERICENTER = 33.5844
MEAN_ANOMALY   = 326.6441

EPHEMERIS_TYPE = 0
CLASSIFICATION_TYPE = U
NORAD_CAT_ID   = 20511
ELEMENT_SET_NO = 999
REV_AT_EPOCH   = 92541
BSTAR          = .59038E-4
MEAN_MOTION_DOT = .495E-5
MEAN_MOTION_DDOT = 0

CCSDS_OMM_VERS = 2.0
CREATION_DATE  = 
ORIGINATOR     = 

OBJECT_NAME    = HST
OBJECT_ID      = 1990-037B
CENTER_NAME    = EARTH
REF_FRAME      = TEME
TIME_SYSTEM    = UTC
MEAN_ELEMENT_THEORY = SGP/SGP4

EPOCH          = 2026-03-28T19:09:20.319840
MEAN_MOTION    = 15.29774056
ECCENTRICITY   = .0001691
INCLINATION    = 28.4720
RA_OF_ASC_NODE = 269.6203
ARG_OF_PERICENTER = 350.4608
MEAN_ANOMALY   = 9.5956

EPHEMERIS_TYPE = 0
CLASSIFICATION_TYPE = U
NORAD_CAT_ID   = 20580
ELEMENT_SET_NO = 999
REV_AT_EPOCH   = 77624
BSTAR          = .29315E-3
MEAN_MOTION_DOT = .8936E-4
MEAN_MOTION_DDOT = 0

CCSDS_OMM_VERS = 2.0
CREATION_DATE  = 
ORIGINATOR     = 

OBJECT_NAME    = SL-16 R/B
OBJECT_ID      = 1990-046B
CENTER_NAME    = EARTH
REF_FRAME      = TEME
TIME_SYSTEM    = UTC
MEAN_ELEMENT_THEORY = SGP/SGP4

EPOCH          = 2026-03-28T18:48:56.461248
MEAN_MOTION    = 14.15016242
ECCENTRICITY   = .0016338
INCLINATION    = 70.9977
RA_OF_ASC_NODE = 257.8083
ARG_OF_PERICENTER = 274.5689
MEAN_ANOMALY   = 85.3567

EPHEMERIS_TYPE = 0
CLASSIFICATION_TYPE = U
NORAD_CAT_ID   = 20625
ELEMENT_SET_NO = 999
REV_AT_EPOCH   = 85109
BSTAR          = .15343E-3
MEAN_MOTION_DOT = .25E-5
MEAN_MOTION_DDOT = 0

CCSDS_OMM_VERS = 2.0
CREATION_DATE  = 
ORIGINATOR     = 

OBJECT_NAME    = COSMOS 2084
OBJECT_ID      = 1990-055A
CENTER_NAME    = EARTH
REF_FRAME      = TEME
TIME_SYSTEM    = UTC
MEAN_ELEMENT_THEORY = SGP/SGP4

EPOCH          = 2026-03-28T20:22:04.628352
MEAN_MOTION    = 15.05754696
ECCENTRICITY   = .0014043
INCLINATION    = 62.7892
RA_OF_ASC_NODE = 270.2268
ARG_OF_PERICENTER = 195.9981
MEAN_ANOMALY   = 164.0678

EPHEMERIS_TYPE = 0
CLASSIFICATION_TYPE = U
NORAD_CAT_ID   = 20663
ELEMENT_SET_NO = 999
REV_AT_EPOCH   = 93920
BSTAR          = .23409E-3
MEAN_MOTION_DOT = .3212E-4
MEAN_MOTION_DDOT = 0

CCSDS_OMM_VERS = 2.0
CREATION_DATE  = 
ORIGINATOR     = 

OBJECT_NAME    = SL-6 R/B(2)
OBJECT_ID      = 1990-055D
CENTER_NAME    = EARTH
REF_FRAME      = TEME
TIME_SYSTEM    = UTC
MEAN_ELEMENT_THEORY = SGP/SGP4

EPOCH          = 2026-03-28T15:47:37.572864
MEAN_MOTION    = 15.03684152
ECCENTRICITY   = .0027905
INCLINATION    = 62.7832
RA_OF_ASC_NODE = 189.3408
ARG_OF_PERICENTER = 351.3124
MEAN_ANOMALY   = 8.7489

EPHEMERIS_TYPE = 0
CLASSIFICATION_TYPE = U
NORAD_CAT_ID   = 20666
ELEMENT_SET_NO = 999
REV_AT_EPOCH   = 94104
BSTAR          = .16363E-3
MEAN_MOTION_DOT = .2068E-4
MEAN_MOTION_DDOT = 0

CCSDS_OMM_VERS = 2.0
CREATION_DATE  = 
ORIGINATOR     = 

OBJECT_NAME    = SL-8 R/B
OBJECT_ID      = 1990-078B
CENTER_NAME    = EARTH
REF_FRAME      = TEME
TIME_SYSTEM    = UTC
MEAN_ELEMENT_THEORY = SGP/SGP4

EPOCH          = 2026-03-28T20:34:02.419680
MEAN_MOTION    = 14.89633432
ECCENTRICITY   = .0358436
INCLINATION    = 82.9022
RA_OF_ASC_NODE = 234.0621
ARG_OF_PERICENTER = 309.3613
MEAN_ANOMALY   = 47.6346

EPHEMERIS_TYPE = 0
CLASSIFICATION_TYPE = U
NORAD_CAT_ID   = 20775
ELEMENT_SET_NO = 999
REV_AT_EPOCH   = 81215
BSTAR          = .38366E-3
MEAN_MOTION_DOT = .12948E-3
MEAN_MOTION_DDOT = 0

CCSDS_OMM_VERS = 2.0
CREATION_DATE  = 
ORIGINATOR     = 

OBJECT_NAME    = SL-8 R/B
OBJECT_ID      = 1991-006B
CENTER_NAME    = EARTH
REF_FRAME      = TEME
TIME_SYSTEM    = UTC
MEAN_ELEMENT_THEORY = SGP/SGP4

EPOCH          = 2026-03-28T17:44:05.985024
MEAN_MOTION    = 13.77497126
ECCENTRICITY   = .0021851
INCLINATION    = 82.9445
RA_OF_ASC_NODE = 155.8836
ARG_OF_PERICENTER = 345.4118
MEAN_ANOMALY   = 131.2754

EPHEMERIS_TYPE = 0
CLASSIFICATION_TYPE = U
NORAD_CAT_ID   = 21088
ELEMENT_SET_NO = 999
REV_AT_EPOCH   = 76669
BSTAR          = .76199E-4
MEAN_MOTION_DOT = .91E-6
MEAN_MOTION_DDOT = 0

CCSDS_OMM_VERS = 2.0
CREATION_DATE  = 
ORIGINATOR     = 

OBJECT_NAME    = OKEAN-3
OBJECT_ID      = 1991-039A
CENTER_NAME    = EARTH
REF_FRAME      = TEME
TIME_SYSTEM    = UTC
MEAN_ELEMENT_THEORY = SGP/SGP4

EPOCH          = 2026-03-28T21:29:27.046752
MEAN_MOTION    = 15.04914035
ECCENTRICITY   = .0012346
INCLINATION    = 82.5163
RA_OF_ASC_NODE = 318.2350
ARG_OF_PERICENTER = 265.8029
MEAN_ANOMALY   = 94.1787

EPHEMERIS_TYPE = 0
CLASSIFICATION_TYPE = U
NORAD_CAT_ID   = 21397
ELEMENT_SET_NO = 999
REV_AT_EPOCH   = 86792
BSTAR          = .18351E-3
MEAN_MOTION_DOT = .2628E-4
MEAN_MOTION_DDOT = 0

CCSDS_OMM_VERS = 2.0
CREATION_DATE  = 
ORIGINATOR     = 

OBJECT_NAME    = COSMOS 2151
OBJECT_ID      = 1991-042A
CENTER_NAME    = EARTH
REF_FRAME      = TEME
TIME_SYSTEM    = UTC
MEAN_ELEMENT_THEORY = SGP/SGP4

EPOCH          = 2026-03-28T19:50:36.433248
MEAN_MOTION    = 15.00186415
ECCENTRICITY   = .001238
INCLINATION    = 82.4944
RA_OF_ASC_NODE = 65.2100
ARG_OF_PERICENTER = 3.2866
MEAN_ANOMALY   = 356.8437

EPHEMERIS_TYPE = 0
CLASSIFICATION_TYPE = U
NORAD_CAT_ID   = 21422
ELEMENT_SET_NO = 999
REV_AT_EPOCH   = 86606
BSTAR          = .20913E-3
MEAN_MOTION_DOT = .2642E-4
MEAN_MOTION_DDOT = 0

CCSDS_OMM_VERS = 2.0
CREATION_DATE  = 
ORIGINATOR     = 

OBJECT_NAME    = SL-14 R/B
OBJECT_ID      = 1991-042B
CENTER_NAME    = EARTH
REF_FRAME      = TEME
TIME_SYSTEM    = UTC
MEAN_ELEMENT_THEORY = SGP/SGP4

EPOCH          = 2026-03-28T19:11:52.145376
MEAN_MOTION    = 14.81848549
ECCENTRICITY   = .0017215
INCLINATION    = 82.4956
RA_OF_ASC_NODE = 202.2659
ARG_OF_PERICENTER = 173.5055
MEAN_ANOMALY   = 186.6386

EPHEMERIS_TYPE = 0
CLASSIFICATION_TYPE = U
NORAD_CAT_ID   = 21423
ELEMENT_SET_NO = 999
REV_AT_EPOCH   = 85590
BSTAR          = .6026E-4
MEAN_MOTION_DOT = .501E-5
MEAN_MOTION_DDOT = 0

